2022-164A               
1 54588U 22164A   23002.20903309  .00000585  00000+0  18156-3 0  9999
2 54588  98.3543  34.1459 0009472 193.4073 166.6870 14.44558053  3780
KZ-11 R/B               
1 54589U 22164B   23002.04134290  .00022867  23654-5  25677-3 0  9996
2 54589  98.3666  36.7710 0377309  18.2243 343.2089 15.08395719  3925
2022-165A               
1 54640U 22165A   23002.23295550  .00000593  00000+0  13943-3 0  9992
2 54640  98.1196 305.1713 0001182  98.7381 261.3970 14.57778058  3578
2022-165B               
1 54641U 22165B   23002.19368491  .00000612  00000+0  12127-3 0  9998
2 54641  98.0309 305.0135 0033746 223.4728 136.3829 14.65375818  3574
ONEWEB-0527             
1 54642U 22166A   23002.58334491 -.01242171  00000+0 -16622+0 0  9997
2 54642  86.5691 147.4722 0009655 146.7504  47.8540 14.82853671  4419
ONEWEB-0528             
1 54643U 22166B   23002.25001157 -.01142272  00000+0 -14974+0 0  9991
2 54643  86.5667 147.6219 0009698 147.9780  64.4692 14.83437909  4362
ONEWEB-0539             
1 54644U 22166C   23002.25001157 -.01148720  00000+0 -14683+0 0  9993
2 54644  86.5604 147.6079 0010656 147.8244  95.2827 14.84483119  4365
ONEWEB-0540             
1 54645U 22166D   23002.58334491 -.01246132  00000+0 -16961+0 0  9997
2 54645  86.5702 147.4699 0009351 149.5730  27.1479 14.82163659  4415
ONEWEB-0542             
1 54646U 22166E   23002.58334491 -.01232760  00000+0 -14664+0 0  9998
2 54646  86.5495 147.4397 0014252 153.6783 178.4892 14.87582298  4418
ONEWEB-0545             
1 54647U 22166F   23002.58334491 -.01244532  00000+0 -16696+0 0  9996
2 54647  86.5674 147.4676 0009543 148.5662  39.5478 14.82756106  4417
ONEWEB-0580             
1 54648U 22166G   22365.64532482 -.00049741  00000+0 -49731-2 0  9998
2 54648  86.5168 148.2949 0014786 155.5536 204.6396 14.91757812  3688
ONEWEB-0582             
1 54649U 22166H   23002.00001157 -.01188907  00000+0 -14658+0 0  9994
2 54649  86.5525 147.7090 0011370 147.6393 222.1249 14.86055313  1306
ONEWEB-0583             
1 54650U 22166J   23002.58334491 -.00973533  00000+0 -12283+0 0  9997
2 54650  86.5593 147.4551 0012120 146.5239 117.1341 14.84989191  4423
ONEWEB-0584             
1 54651U 22166K   23002.58334491 -.01242438  00000+0 -15826+0 0  9998
2 54651  86.5600 147.4535 0012059 146.9379 109.1152 14.84852742  4416
ONEWEB-0585             
1 54652U 22166L   23002.00001157 -.01258184  00000+0 -15990+0 0  9993
2 54652  86.5587 147.7196 0010743 147.3361 198.4170 14.85004425  1305
ONEWEB-0586             
1 54653U 22166M   23002.08334491 -.01241140  00000+0 -16508+0 0  9992
2 54653  86.5680 147.7024 0008780 155.6984 218.4229 14.83110707  4345
ONEWEB-0587             
1 54654U 22166N   23002.58334491 -.01252250  00000+0 -16151+0 0  9996
2 54654  86.5635 147.4659 0011717 145.6382  92.3545 14.84372001  4418
ONEWEB-0589             
1 54655U 22166P   23002.58334491 -.01245414  00000+0 -14881+0 0  9999
2 54655  86.5490 147.4396 0013970 153.0945 173.7157 14.87437771  4419
ONEWEB-0590             
1 54656U 22166Q   23002.58334491 -.01087756  00000+0 -13161+0 0  9993
2 54656  86.5494 147.4398 0013746 152.9341 165.1974 14.87021909  4419
ONEWEB-0591             
1 54657U 22166R   23002.58334491 -.01232766  00000+0 -15027+0 0  9990
2 54657  86.5554 147.4483 0013811 153.3301 158.3056 14.86597732  4412
ONEWEB-0592             
1 54658U 22166S   23002.33334491 -.00820084  00000+0 -14534+0 0  9991
2 54658  86.4718 147.5792 0008938 153.7337 115.9706 14.70149752  4368
ONEWEB-0593             
1 54659U 22166T   23002.33334491 -.01149192  00000+0 -14473+0 0  9999
2 54659  86.5592 147.5729 0011719 147.8034 204.7501 14.85078695  4384
ONEWEB-0594             
1 54660U 22166U   23002.58334491 -.01245054  00000+0 -15615+0 0  9991
2 54660  86.5589 147.4511 0013312 149.9733 136.1339 14.85477281  4415
ONEWEB-0595             
1 54661U 22166V   23002.58334491 -.01266529  00000+0 -15024+0 0  9996
2 54661  86.5449 147.4555 0011470 147.1174 123.7129 14.87820082  4413
ONEWEB-0596             
1 54662U 22166W   23002.58334491 -.01259455  00000+0 -16558+0 0  9990
2 54662  86.5656 147.4606 0010880 145.4864  83.3230 14.83614262  4413
ONEWEB-0597             
1 54663U 22166X   23002.00001157 -.01255463  00000+0 -14755+0 0  9990
2 54663  86.5433 147.6966 0013522 153.2183 273.5830 14.88138411  1301
ONEWEB-0600             
1 54664U 22166Y   23002.58334491 -.01243231  00000+0 -14957+0 0  9998
2 54664  86.5502 147.4400 0014051 154.4170 169.4983 14.87153613  4414
ONEWEB-0601             
1 54665U 22166Z   23002.58334491 -.01245867  00000+0 -15251+0 0  9994
2 54665  86.5557 147.4490 0013741 151.9550 153.4184 14.86460845  4416
ONEWEB-0602             
1 54666U 22166AA  23002.58334491 -.01242466  00000+0 -15473+0 0  9993
2 54666  86.5591 147.4510 0013604 151.0229 144.1217 14.85754254  4413
ONEWEB-0603             
1 54667U 22166AB  23002.33334491 -.00792736  00000+0 -14896+0 0  9994
2 54667  86.5778 147.6907 0009562 153.6943  42.6186 14.67478895  4367
ONEWEB-0604             
1 54668U 22166AC  23002.08334491 -.00801301  00000+0 -13773+0 0  9999
2 54668  86.4690 147.6938 0008593 152.6784 268.9341 14.71424549  4334
ONEWEB-0605             
1 54669U 22166AD  23002.58334491 -.00879866  00000+0 -16897+0 0  9996
2 54669  86.5921 147.5965 0008646 156.1063 261.3538 14.66823513  4401
ONEWEB-0606             
1 54670U 22166AE  23002.58334491 -.00898125  00000+0 -15566+0 0  9999
2 54670  86.4802 147.4741 0009207 150.4457  70.0885 14.71381324  4404
ONEWEB-0607             
1 54671U 22166AF  23002.58334491 -.00907231  00000+0 -15586+0 0  9991
2 54671  86.6045 147.5587 0009301 151.3561  99.9106 14.71793194  4404
ONEWEB-0608             
1 54672U 22166AG  23002.00001157 -.00914714  00000+0 -14205+0 0  9990
2 54672  86.6172 147.8005 0013309 150.7086  17.7164 14.76112895  1308
ONEWEB-0610             
1 54673U 22166AH  23002.00001157 -.00850820  00000+0 -13851+0 0  9994
2 54673  86.4753 147.7170 0009583 150.4334 253.6520 14.73928576  1301
ONEWEB-0611             
1 54674U 22166AJ  23002.00001157 -.00896314  00000+0 -14408+0 0  9992
2 54674  86.4809 147.7169 0012296 146.5385 323.3010 14.74591192  1309
ONEWEB-0612             
1 54675U 22166AK  23002.00001157 -.00916130  00000+0 -16058+0 0  9995
2 54675  86.4458 147.7268 0008491 155.3596 165.3312 14.70958483  1309
ONEWEB-0615             
1 54676U 22166AL  23002.08334491 -.00888717  00000+0 -14602+0 0  9996
2 54676  86.4790 147.6841 0011054 145.9620  12.3552 14.73640516  4338
ONEWEB-0655             
1 54677U 22166AM  23002.33334491 -.00789159  00000+0 -12932+0 0  9999
2 54677  86.4764 147.5642 0010722 148.1386 255.4660 14.73430447  4377
ONEWEB-0659             
1 54678U 22166AN  23002.08334491 -.01250838  00000+0 -15856+0 0  9998
2 54678  86.5577 147.6768 0011012 145.7775 297.2871 14.85086605  4340
ONEWEB-0685             
1 54679U 22166AP  23002.58334491 -.00848631  00000+0 -14970+0 0  9993
2 54679  86.4766 147.4806 0008741 154.4014   1.3172 14.70451267  4408
ONEWEB-0712             
1 54680U 22166AQ  23002.52356524 -.00167782  00000+0 -17218-1 0  9991
2 54680  86.5187 147.4677 0013175 148.4968 211.7052 14.91383744  4403
ONEWEB-0714             
1 54681U 22166AR  23002.58334491 -.01252683  00000+0 -15170+0 0  9996
2 54681  86.5538 147.4450 0013965 154.1866 166.2970 14.86912944  4419
2022-167A               
1 54682U 22167A   23002.01841483  .00010945  00000+0  69303-3 0  9991
2 54682  97.5351 141.5893 0014250 180.6903 315.6587 15.09059359  3584
2022-167B               
1 54683U 22167B   23002.01356776  .00048463  00000+0  53458-3 0  9998
2 54683  97.5867 142.9715 0200199 240.1192 117.9957 15.42169614  3639
CAS-5A (FO-118)         
1 54684U 22167C   23002.40559880  .00008862  00000+0  56157-3 0  9991
2 54684  97.5383 141.9807 0014542 181.4365 263.5051 15.09088945  3631
2022-167D               
1 54685U 22167D   23002.00804775  .00006306  00000+0  39525-3 0  9995
2 54685  97.5435 141.6269 0013467 194.9389 302.6575 15.09621471  3575
2022-167E               
1 54686U 22167E   23002.00810235  .00006258  00000+0  39234-3 0  9997
2 54686  97.5393 141.6142 0013169 195.1461 302.4255 15.09616608  3571
2022-167F               
1 54687U 22167F   23002.39476441  .00010584  00000+0  65724-3 0  9997
2 54687  97.5382 141.9940 0013883 194.3845 250.6337 15.09785040  3638
2022-167G               
1 54688U 22167G   23002.39308752  .00010836  00000+0  67049-3 0  9999
2 54688  97.5357 141.9877 0014254 195.5276 248.8035 15.09904903  3639
2022-167H               
1 54689U 22167H   23002.00617270  .00006270  00000+0  39163-3 0  9999
2 54689  97.5456 141.6360 0014350 195.6504 302.1311 15.09741983  3577
2022-167J               
1 54690U 22167J   23002.00352389  .00006460  00000+0  40164-3 0  9992
2 54690  97.5334 141.6026 0014636 198.2270 297.9430 15.09894817  3577
2022-167K               
1 54691U 22167K   23002.00448233  .00010445  00000+0  64737-3 0  9997
2 54691  97.5406 141.6218 0014771 196.0246 299.0843 15.09849136  3575
2022-167L               
1 54692U 22167L   23002.00340763  .00006413  00000+0  39859-3 0  9994
2 54692  97.5445 141.6353 0015337 197.3042 298.8640 15.09901291  3579
2022-167M               
1 54693U 22167M   23002.01807566  .00012158  00000+0  76818-3 0  9994
2 54693  97.5406 141.6065 0014584 181.3661 315.1018 15.09107367  3541
2022-167N               
1 54694U 22167N   23002.00139174  .00006610  00000+0  40941-3 0  9991
2 54694  97.5358 141.6113 0015509 198.7941 295.6602 15.10012809  3575
2022-167P               
1 54695U 22167P   23002.00136042  .00006571  00000+0  40693-3 0  9993
2 54695  97.5404 141.6241 0015815 198.2973 296.1683 15.10014156  3572
FALCON 9 R/B            
1 54698U 22168C   22345.32368031  .00002049 -64822-5  00000+0 0  9995
2 54698  29.0000  41.2312 0098300  59.8200  27.0300 16.15592824    07
